[{"name":"12th St. Oakland City Center","id":"12","abbr":"12TH","gtfs_latitude":37.803664,"gtfs_longitude":-122.271604,"city":"Oakland","zipcode":94612,"index":8},
{"name":"16th St. Mission","id":"16","abbr":"16TH","gtfs_latitude":37.765062,"gtfs_longitude":-122.419694,"city":"San Francisco","zipcode":94110,"index":29},
{"name":"19th St. Oakland","id":"19","abbr":"19TH","gtfs_latitude":37.80787,"gtfs_longitude":-122.269029,"city":"Oakland","zipcode":94612,"index":7},
{"name":"24th St. Mission","id":"24","abbr":"24TH","gtfs_latitude":37.752254,"gtfs_longitude":-122.418466,"city":"San Francisco","zipcode":94110,"index":30},
{"name":"Ashby","id":"AS","abbr":"ASHB","gtfs_latitude":37.853024,"gtfs_longitude":-122.26978,"city":"Berkeley","zipcode":94703,"index":5},
{"name":"Bay Fair","id":"BF","abbr":"BAYF","gtfs_latitude":37.697185,"gtfs_longitude":-122.126871,"city":"San Leandro","zipcode":94578,"index":13},
{"name":"Castro Valley","id":"CV","abbr":"CAST","gtfs_latitude":37.690754,"gtfs_longitude":-122.075567,"city":"Castro Valley","zipcode":94546,"index":35},
{"name":"Balboa Park","id":"BP","abbr":"BALB","gtfs_latitude":37.72198087,"gtfs_longitude":-122.4474142,"city":"San Francisco","zipcode":94112,"index":32},
{"name":"Coliseum/Oakland Airport","id":"CL","abbr":"COLS","gtfs_latitude":37.754006,"gtfs_longitude":-122.197273,"city":"Oakland","zipcode":94621,"index":11},
{"name":"Colma","id":"CM","abbr":"COLM","gtfs_latitude":37.684638,"gtfs_longitude":-122.466233,"city":"Colma","zipcode":94014,"index":34},
{"name":"Concord","id":"CN","abbr":"CONC","gtfs_latitude":37.973737,"gtfs_longitude":-122.029095,"city":"Concord","zipcode":94520,"index":18},
{"name":"Daly City","id":"DC","abbr":"DALY","gtfs_latitude":37.70612055,"gtfs_longitude":-122.4690807,"city":"Daly City","zipcode":94014,"index":33},
{"name":"Civic Center/UN Plaza","id":"CC","abbr":"CIVC","gtfs_latitude":37.779528,"gtfs_longitude":-122.413756,"city":"San Francisco","zipcode":94102,"index":28},
{"name":"Downtown Berkeley","id":"BK","abbr":"DBRK","gtfs_latitude":37.869867,"gtfs_longitude":-122.268045,"city":"Berkeley","zipcode":94704,"index":4},
{"name":"Dublin/Pleasanton","id":"ED","abbr":"DUBL","gtfs_latitude":37.701695,"gtfs_longitude":-121.900367,"city":"Pleasanton","zipcode":94588,"index":36},
{"name":"Embarcadero","id":"EM","abbr":"EMBR","gtfs_latitude":37.792976,"gtfs_longitude":-122.396742,"city":"San Francisco","zipcode":94111,"index":25},
{"name":"El Cerrito del Norte","id":"EN","abbr":"DELN","gtfs_latitude":37.925655,"gtfs_longitude":-122.317269,"city":"El Cerrito","zipcode":94530,"index":1},
{"name":"El Cerrito Plaza","id":"EP","abbr":"PLZA","gtfs_latitude":37.9030588,"gtfs_longitude":-122.2992715,"city":"El Cerrito","zipcode":94530,"index":2},
{"name":"Fremont","id":"FM","abbr":"FRMT","gtfs_latitude":37.557355,"gtfs_longitude":-121.9764,"city":"Fremont","zipcode":94536,"index":17},
{"name":"Fruitvale","id":"FV","abbr":"FTVL","gtfs_latitude":37.774963,"gtfs_longitude":-122.224274,"city":"Oakland","zipcode":94601,"index":10},
{"name":"Glen Park","id":"GP","abbr":"GLEN","gtfs_latitude":37.732921,"gtfs_longitude":-122.434092,"city":"San Francisco","zipcode":94131,"index":31},
{"name":"Hayward","id":"HY","abbr":"HAYW","gtfs_latitude":37.670399,"gtfs_longitude":-122.087967,"city":"Hayward","zipcode":94541,"index":14},
{"name":"Lafayette","id":"LF","abbr":"LAFY","gtfs_latitude":37.893394,"gtfs_longitude":-122.123801,"city":"Lafayette","zipcode":94549,"index":21},
{"name":"Lake Merritt","id":"LM","abbr":"LAKE","gtfs_latitude":37.797484,"gtfs_longitude":-122.265609,"city":"Oakland","zipcode":94607,"index":9},
{"name":"MacArthur","id":"MA","abbr":"MCAR","gtfs_latitude":37.828415,"gtfs_longitude":-122.267227,"city":"Oakland","zipcode":94609,"index":6},
{"name":"Millbrae","id":"MB","abbr":"MLBR","gtfs_latitude":37.599787,"gtfs_longitude":-122.38666,"city":"Millbrae","zipcode":94030,"index":42},
{"name":"Montgomery St.","id":"MT","abbr":"MONT","gtfs_latitude":37.789256,"gtfs_longitude":-122.401407,"city":"San Francisco","zipcode":94104,"index":26},
{"name":"North Berkeley","id":"NB","abbr":"NBRK","gtfs_latitude":37.87404,"gtfs_longitude":-122.283451,"city":"Berkeley","zipcode":94702,"index":3},
{"name":"North Concord/Martinez","id":"NC","abbr":"NCON","gtfs_latitude":38.003275,"gtfs_longitude":-122.024597,"city":"Concord","zipcode":94520,"index":37},
{"name":"Orinda","id":"OR","abbr":"ORIN","gtfs_latitude":37.87836087,"gtfs_longitude":-122.1837911,"city":"Orinda","zipcode":94563,"index":22},
{"name":"West Oakland","id":"OW","abbr":"WOAK","gtfs_latitude":37.80467476,"gtfs_longitude":-122.2945822,"city":"Oakland","zipcode":94607,"index":24},
{"name":"Pleasant Hill/Contra Costa Centre","id":"PH","abbr":"PHIL","gtfs_latitude":37.928403,"gtfs_longitude":-122.056013,"city":"Walnut Creek","zipcode":94597,"index":19},
{"name":"Powell St.","id":"PL","abbr":"POWL","gtfs_latitude":37.784991,"gtfs_longitude":-122.406857,"city":"San Francisco","zipcode":94102,"index":27},
{"name":"Richmond","id":"RM","abbr":"RICH","gtfs_latitude":37.936887,"gtfs_longitude":-122.353165,"city":"Richmond","zipcode":94801,"index":0},
{"name":"Rockridge","id":"RR","abbr":"ROCK","gtfs_latitude":37.844601,"gtfs_longitude":-122.251793,"city":"Oakland","zipcode":94618,"index":23},
{"name":"San Bruno","id":"SB","abbr":"SBRN","gtfs_latitude":37.637753,"gtfs_longitude":-122.416038,"city":"San Bruno","zipcode":94066,"index":40},
{"name":"South Hayward","id":"SH","abbr":"SHAY","gtfs_latitude":37.63479954,"gtfs_longitude":-122.0575506,"city":"Hayward","zipcode":94544,"index":15},
{"name":"San Leandro","id":"SL","abbr":"SANL","gtfs_latitude":37.72261921,"gtfs_longitude":-122.1613112,"city":"San Leandro","zipcode":94577,"index":12},
{"name":"San Francisco Int'l Airport","id":"SO","abbr":"SFIA","gtfs_latitude":37.616035,"gtfs_longitude":-122.392612,"city":"San Francisco Int'l Airport","zipcode":94128,"index":41},
{"name":"South San Francisco","id":"SS","abbr":"SSAN","gtfs_latitude":37.664174,"gtfs_longitude":-122.444116,"city":"South San Francisco","zipcode":94080,"index":39},
{"name":"Union City","id":"UC","abbr":"UCTY","gtfs_latitude":37.591208,"gtfs_longitude":-122.017867,"city":"Union City","zipcode":94587,"index":16},
{"name":"Walnut Creek","id":"WC","abbr":"WCRK","gtfs_latitude":37.905628,"gtfs_longitude":-122.067423,"city":"Walnut Creek","zipcode":94596,"index":20},
{"name":"West Dublin/Pleasanton","id":"WD","abbr":"WDUB","gtfs_latitude":37.699759,"gtfs_longitude":-121.928099,"city":"Dublin","zipcode":94568,"index":43},
{"name":"Pittsburg/Bay Point","id":"WP","abbr":"PITT","gtfs_latitude":38.018914,"gtfs_longitude":-121.945154,"city":"Pittsburg","zipcode":94565,"index":38}]